[{"OBJECT_NAME":"SL-8 R/B","OBJECT_ID":"1988-053B","EPOCH":"2026-03-07T13:55:44.225472","MEAN_MOTION":14.38914426,"ECCENTRICITY":0.00214022,"INCLINATION":74.0463,"RA_OF_ASC_NODE":116.3549,"ARG_OF_PERICENTER":295.9237,"MEAN_ANOMALY":175.0046,"EPHEMERIS_TYPE":0,"CLASSIFICATION_TYPE":"U","NORAD_CAT_ID":19257,"ELEMENT_SET_NO":999,"REV_AT_EPOCH":97629,"BSTAR":0.00012006485,"MEAN_MOTION_DOT":3.44e-6,"MEAN_MOTION_DDOT":0},{"OBJECT_NAME":"COSMOS 1975","OBJECT_ID":"1988-093A","EPOCH":"2026-03-07T15:06:11.600352","MEAN_MOTION":15.28034297,"ECCENTRICITY":0.00119324,"INCLINATION":82.5182,"RA_OF_ASC_NODE":119.7534,"ARG_OF_PERICENTER":170.4114,"MEAN_ANOMALY":189.7356,"EPHEMERIS_TYPE":0,"CLASSIFICATION_TYPE":"U","NORAD_CAT_ID":19573,"ELEMENT_SET_NO":999,"REV_AT_EPOCH":1909,"BSTAR":0.0003693889,"MEAN_MOTION_DOT":0.00010153,"MEAN_MOTION_DDOT":0},{"OBJECT_NAME":"SL-14 R/B","OBJECT_ID":"1988-093B","EPOCH":"2026-03-07T10:47:52.599840","MEAN_MOTION":14.85653721,"ECCENTRICITY":0.0021899,"INCLINATION":82.5301,"RA_OF_ASC_NODE":44.1463,"ARG_OF_PERICENTER":48.5281,"MEAN_ANOMALY":67.5482,"EPHEMERIS_TYPE":0,"CLASSIFICATION_TYPE":"U","NORAD_CAT_ID":19574,"ELEMENT_SET_NO":999,"REV_AT_EPOCH":68,"BSTAR":9.6755415e-5,"MEAN_MOTION_DOT":8.66e-6,"MEAN_MOTION_DDOT":0},{"OBJECT_NAME":"SL-16 R/B","OBJECT_ID":"1988-102B","EPOCH":"2026-03-07T15:28:14.437056","MEAN_MOTION":14.16150772,"ECCENTRICITY":0.00138189,"INCLINATION":71.0001,"RA_OF_ASC_NODE":155.8003,"ARG_OF_PERICENTER":4.8008,"MEAN_ANOMALY":355.3245,"EPHEMERIS_TYPE":0,"CLASSIFICATION_TYPE":"U","NORAD_CAT_ID":19650,"ELEMENT_SET_NO":999,"REV_AT_EPOCH":92660,"BSTAR":0.00015455632,"MEAN_MOTION_DOT":2.58e-6,"MEAN_MOTION_DDOT":0},{"OBJECT_NAME":"INTERCOSMOS 24","OBJECT_ID":"1989-080A","EPOCH":"2026-03-07T13:53:04.650720","MEAN_MOTION":12.59554373,"ECCENTRICITY":0.11867352,"INCLINATION":82.6029,"RA_OF_ASC_NODE":105.7792,"ARG_OF_PERICENTER":297.7253,"MEAN_ANOMALY":50.8395,"EPHEMERIS_TYPE":0,"CLASSIFICATION_TYPE":"U","NORAD_CAT_ID":20261,"ELEMENT_SET_NO":999,"REV_AT_EPOCH":66653,"BSTAR":0.00028931593,"MEAN_MOTION_DOT":9.72e-6,"MEAN_MOTION_DDOT":0},{"OBJECT_NAME":"SL-14 R/B","OBJECT_ID":"1989-080C","EPOCH":"2026-03-07T15:14:54.159648","MEAN_MOTION":12.50491104,"ECCENTRICITY":0.12304959,"INCLINATION":82.5973,"RA_OF_ASC_NODE":174.5046,"ARG_OF_PERICENTER":189.443,"MEAN_ANOMALY":168.1459,"EPHEMERIS_TYPE":0,"CLASSIFICATION_TYPE":"U","NORAD_CAT_ID":20262,"ELEMENT_SET_NO":999,"REV_AT_EPOCH":65989,"BSTAR":0.00026709626,"MEAN_MOTION_DOT":8.99e-6,"MEAN_MOTION_DDOT":0},{"OBJECT_NAME":"DELTA 1 R/B","OBJECT_ID":"1989-089B","EPOCH":"2026-03-07T13:14:14.174016","MEAN_MOTION":14.50661124,"ECCENTRICITY":0.00703404,"INCLINATION":97.0707,"RA_OF_ASC_NODE":274.3303,"ARG_OF_PERICENTER":128.6437,"MEAN_ANOMALY":232.1085,"EPHEMERIS_TYPE":0,"CLASSIFICATION_TYPE":"U","NORAD_CAT_ID":20323,"ELEMENT_SET_NO":999,"REV_AT_EPOCH":89542,"BSTAR":0.00012405534,"MEAN_MOTION_DOT":4.68e-6,"MEAN_MOTION_DDOT":0},{"OBJECT_NAME":"ARIANE 40 R/B","OBJECT_ID":"1990-005H","EPOCH":"2026-03-07T14:09:19.976256","MEAN_MOTION":14.39868992,"ECCENTRICITY":0.00097134,"INCLINATION":98.3088,"RA_OF_ASC_NODE":127.3139,"ARG_OF_PERICENTER":204.8599,"MEAN_ANOMALY":155.2123,"EPHEMERIS_TYPE":0,"CLASSIFICATION_TYPE":"U","NORAD_CAT_ID":20443,"ELEMENT_SET_NO":999,"REV_AT_EPOCH":89250,"BSTAR":0.0001342849,"MEAN_MOTION_DOT":3.8e-6,"MEAN_MOTION_DDOT":0},{"OBJECT_NAME":"DELTA 2 R/B(1)","OBJECT_ID":"1990-008B","EPOCH":"2026-03-07T09:14:57.111072","MEAN_MOTION":15.55634124,"ECCENTRICITY":0.00859328,"INCLINATION":35.6042,"RA_OF_ASC_NODE":189.9737,"ARG_OF_PERICENTER":237.5116,"MEAN_ANOMALY":121.7291,"EPHEMERIS_TYPE":0,"CLASSIFICATION_TYPE":"U","NORAD_CAT_ID":20453,"ELEMENT_SET_NO":999,"REV_AT_EPOCH":92577,"BSTAR":0.0010085842,"MEAN_MOTION_DOT":0.00085457,"MEAN_MOTION_DDOT":0},{"OBJECT_NAME":"COSMOS 2058","OBJECT_ID":"1990-010A","EPOCH":"2026-03-07T11:07:02.942400","MEAN_MOTION":15.11298259,"ECCENTRICITY":0.00095647,"INCLINATION":82.4671,"RA_OF_ASC_NODE":49.6214,"ARG_OF_PERICENTER":351.1659,"MEAN_ANOMALY":8.9401,"EPHEMERIS_TYPE":0,"CLASSIFICATION_TYPE":"U","NORAD_CAT_ID":20465,"ELEMENT_SET_NO":999,"REV_AT_EPOCH":94190,"BSTAR":0.00036676833,"MEAN_MOTION_DOT":6.208e-5,"MEAN_MOTION_DDOT":0},{"OBJECT_NAME":"SL-14 R/B","OBJECT_ID":"1990-010B","EPOCH":"2026-03-07T14:18:18.980064","MEAN_MOTION":14.83566901,"ECCENTRICITY":0.00186665,"INCLINATION":82.4988,"RA_OF_ASC_NODE":269.356,"ARG_OF_PERICENTER":309.7077,"MEAN_ANOMALY":50.2491,"EPHEMERIS_TYPE":0,"CLASSIFICATION_TYPE":"U","NORAD_CAT_ID":20466,"ELEMENT_SET_NO":999,"REV_AT_EPOCH":92817,"BSTAR":6.4553787e-5,"MEAN_MOTION_DOT":5.56e-6,"MEAN_MOTION_DDOT":0},{"OBJECT_NAME":"SL-14 R/B","OBJECT_ID":"1990-018B","EPOCH":"2026-03-07T14:41:06.852768","MEAN_MOTION":14.82142477,"ECCENTRICITY":0.00176468,"INCLINATION":82.5199,"RA_OF_ASC_NODE":225.0318,"ARG_OF_PERICENTER":98.332,"MEAN_ANOMALY":261.9896,"EPHEMERIS_TYPE":0,"CLASSIFICATION_TYPE":"U","NORAD_CAT_ID":20511,"ELEMENT_SET_NO":999,"REV_AT_EPOCH":92227,"BSTAR":9.1204685e-5,"MEAN_MOTION_DOT":7.51e-6,"MEAN_MOTION_DDOT":0},{"OBJECT_NAME":"HST","OBJECT_ID":"1990-037B","EPOCH":"2026-03-07T01:43:17.774400","MEAN_MOTION":15.29432289,"ECCENTRICITY":0.00018113,"INCLINATION":28.471,"RA_OF_ASC_NODE":57.8566,"ARG_OF_PERICENTER":100.2256,"MEAN_ANOMALY":259.8544,"EPHEMERIS_TYPE":0,"CLASSIFICATION_TYPE":"U","NORAD_CAT_ID":20580,"ELEMENT_SET_NO":999,"REV_AT_EPOCH":77291,"BSTAR":0.00029166201,"MEAN_MOTION_DOT":8.8e-5,"MEAN_MOTION_DDOT":0},{"OBJECT_NAME":"SL-16 R/B","OBJECT_ID":"1990-046B","EPOCH":"2026-03-07T15:31:51.813408","MEAN_MOTION":14.15013177,"ECCENTRICITY":0.00162121,"INCLINATION":70.9991,"RA_OF_ASC_NODE":302.2047,"ARG_OF_PERICENTER":302.3506,"MEAN_ANOMALY":57.6046,"EPHEMERIS_TYPE":0,"CLASSIFICATION_TYPE":"U","NORAD_CAT_ID":20625,"ELEMENT_SET_NO":999,"REV_AT_EPOCH":84810,"BSTAR":-0.00010134689,"MEAN_MOTION_DOT":-2.44e-6,"MEAN_MOTION_DDOT":0},{"OBJECT_NAME":"COSMOS 2084","OBJECT_ID":"1990-055A","EPOCH":"2026-03-07T04:45:24.465312","MEAN_MOTION":15.05633843,"ECCENTRICITY":0.0017441,"INCLINATION":62.7924,"RA_OF_ASC_NODE":344.0754,"ARG_OF_PERICENTER":189.3301,"MEAN_ANOMALY":170.7478,"EPHEMERIS_TYPE":0,"CLASSIFICATION_TYPE":"U","NORAD_CAT_ID":20663,"ELEMENT_SET_NO":999,"REV_AT_EPOCH":93594,"BSTAR":0.00027495,"MEAN_MOTION_DOT":3.799e-5,"MEAN_MOTION_DDOT":0},{"OBJECT_NAME":"SL-6 R/B(2)","OBJECT_ID":"1990-055D","EPOCH":"2026-03-07T15:25:52.925088","MEAN_MOTION":15.03583164,"ECCENTRICITY":0.00243583,"INCLINATION":62.7823,"RA_OF_ASC_NODE":260.8111,"ARG_OF_PERICENTER":346.514,"MEAN_ANOMALY":13.5305,"EPHEMERIS_TYPE":0,"CLASSIFICATION_TYPE":"U","NORAD_CAT_ID":20666,"ELEMENT_SET_NO":999,"REV_AT_EPOCH":93788,"BSTAR":0.00021929245,"MEAN_MOTION_DOT":2.829e-5,"MEAN_MOTION_DDOT":0},{"OBJECT_NAME":"SL-8 R/B","OBJECT_ID":"1990-078B","EPOCH":"2026-03-07T13:25:57.572832","MEAN_MOTION":14.88972174,"ECCENTRICITY":0.03627556,"INCLINATION":82.9,"RA_OF_ASC_NODE":253.2268,"ARG_OF_PERICENTER":21.1646,"MEAN_ANOMALY":340.4147,"EPHEMERIS_TYPE":0,"CLASSIFICATION_TYPE":"U","NORAD_CAT_ID":20775,"ELEMENT_SET_NO":999,"REV_AT_EPOCH":80898,"BSTAR":0.00056860299,"MEAN_MOTION_DOT":0.00019315,"MEAN_MOTION_DDOT":0}]
